QIANFAN-103             
1 66045U 25233N   26061.97659852  .00000047  00000+0  54573-4 0  9990
2 66045  88.9931  53.9297 0001882  91.3432 268.7935 13.51006028 18844
QIANFAN-104             
1 66046U 25233P   26061.98050597  .00000043  00000+0  48420-4 0  9993
2 66046  88.9936  53.8267 0002084  86.2487 273.8902 13.51010092 18896
QIANFAN-105             
1 66047U 25233Q   26061.91455352  .00000043  00000+0  47749-4 0  9998
2 66047  88.9949  53.6623 0002004  92.6499 267.4882 13.50981373 18996
QIANFAN-106             
1 66048U 25233R   26061.91071552  .00000038  00000+0  39827-4 0  9997
2 66048  88.9918  53.9090 0002380  87.3764 272.7660 13.51005054 18848
QIANFAN-107             
1 66049U 25233S   26061.91897078  .00000030  00000+0  27481-4 0  9992
2 66049  88.9933  53.9237 0001904  90.5096 269.6274 13.51003033 18845
QIANFAN-108             
1 66050U 25233T   26061.92307827  .00000035  00000+0  35537-4 0  9999
2 66050  88.9927  53.9185 0002325  86.8899 273.2519 13.51004548 18844
