[{"OBJECT_NAME":"QIANFAN-103","OBJECT_ID":"2025-233N","EPOCH":"2026-03-02T23:26:18.112128","MEAN_MOTION":13.51006028,"ECCENTRICITY":0.00018822,"INCLINATION":88.9931,"RA_OF_ASC_NODE":53.9297,"ARG_OF_PERICENTER":91.3432,"MEAN_ANOMALY":268.7935,"EPHEMERIS_TYPE":0,"CLASSIFICATION_TYPE":"U","NORAD_CAT_ID":66045,"ELEMENT_SET_NO":999,"REV_AT_EPOCH":1884,"BSTAR":5.4573144e-5,"MEAN_MOTION_DOT":4.7e-7,"MEAN_MOTION_DDOT":0},{"OBJECT_NAME":"QIANFAN-104","OBJECT_ID":"2025-233P","EPOCH":"2026-03-02T23:31:55.715808","MEAN_MOTION":13.51010092,"ECCENTRICITY":0.00020847,"INCLINATION":88.9936,"RA_OF_ASC_NODE":53.8267,"ARG_OF_PERICENTER":86.2487,"MEAN_ANOMALY":273.8902,"EPHEMERIS_TYPE":0,"CLASSIFICATION_TYPE":"U","NORAD_CAT_ID":66046,"ELEMENT_SET_NO":999,"REV_AT_EPOCH":1889,"BSTAR":4.8419953e-5,"MEAN_MOTION_DOT":4.3e-7,"MEAN_MOTION_DDOT":0},{"OBJECT_NAME":"QIANFAN-105","OBJECT_ID":"2025-233Q","EPOCH":"2026-03-02T21:56:57.424128","MEAN_MOTION":13.50981373,"ECCENTRICITY":0.00020043,"INCLINATION":88.9949,"RA_OF_ASC_NODE":53.6623,"ARG_OF_PERICENTER":92.6499,"MEAN_ANOMALY":267.4882,"EPHEMERIS_TYPE":0,"CLASSIFICATION_TYPE":"U","NORAD_CAT_ID":66047,"ELEMENT_SET_NO":999,"REV_AT_EPOCH":1899,"BSTAR":4.7748701e-5,"MEAN_MOTION_DOT":4.3e-7,"MEAN_MOTION_DDOT":0},{"OBJECT_NAME":"QIANFAN-106","OBJECT_ID":"2025-233R","EPOCH":"2026-03-02T21:51:25.820928","MEAN_MOTION":13.51005054,"ECCENTRICITY":0.000238,"INCLINATION":88.9918,"RA_OF_ASC_NODE":53.909,"ARG_OF_PERICENTER":87.3764,"MEAN_ANOMALY":272.766,"EPHEMERIS_TYPE":0,"CLASSIFICATION_TYPE":"U","NORAD_CAT_ID":66048,"ELEMENT_SET_NO":999,"REV_AT_EPOCH":1884,"BSTAR":3.9826811e-5,"MEAN_MOTION_DOT":3.8e-7,"MEAN_MOTION_DDOT":0},{"OBJECT_NAME":"QIANFAN-107","OBJECT_ID":"2025-233S","EPOCH":"2026-03-02T22:03:19.075392","MEAN_MOTION":13.51003033,"ECCENTRICITY":0.00019047,"INCLINATION":88.9933,"RA_OF_ASC_NODE":53.9237,"ARG_OF_PERICENTER":90.5096,"MEAN_ANOMALY":269.6274,"EPHEMERIS_TYPE":0,"CLASSIFICATION_TYPE":"U","NORAD_CAT_ID":66049,"ELEMENT_SET_NO":999,"REV_AT_EPOCH":1884,"BSTAR":2.7481057e-5,"MEAN_MOTION_DOT":3.0e-7,"MEAN_MOTION_DDOT":0},{"OBJECT_NAME":"QIANFAN-108","OBJECT_ID":"2025-233T","EPOCH":"2026-03-02T22:09:13.962528","MEAN_MOTION":13.51004548,"ECCENTRICITY":0.00023255,"INCLINATION":88.9927,"RA_OF_ASC_NODE":53.9185,"ARG_OF_PERICENTER":86.8899,"MEAN_ANOMALY":273.2519,"EPHEMERIS_TYPE":0,"CLASSIFICATION_TYPE":"U","NORAD_CAT_ID":66050,"ELEMENT_SET_NO":999,"REV_AT_EPOCH":1884,"BSTAR":3.5536856e-5,"MEAN_MOTION_DOT":3.5e-7,"MEAN_MOTION_DDOT":0}]
